[{"OBJECT_NAME":"STARLINK-2586","OBJECT_ID":"2021-038AP","EPOCH":"2026-03-09T22:12:28.675296","MEAN_MOTION":15.30196494,"ECCENTRICITY":0.00016431,"INCLINATION":53.1631,"RA_OF_ASC_NODE":331.5574,"ARG_OF_PERICENTER":127.3896,"MEAN_ANOMALY":232.7255,"EPHEMERIS_TYPE":0,"CLASSIFICATION_TYPE":"U","NORAD_CAT_ID":48390,"ELEMENT_SET_NO":999,"REV_AT_EPOCH":26869,"BSTAR":-0.0001601936,"MEAN_MOTION_DOT":-5.1e-5,"MEAN_MOTION_DDOT":0},{"OBJECT_NAME":"VSP RF C1","OBJECT_ID":"2024-043AQ","EPOCH":"2026-03-09T21:56:05.358624","MEAN_MOTION":15.29409663,"ECCENTRICITY":0.00093965,"INCLINATION":97.5441,"RA_OF_ASC_NODE":205.1792,"ARG_OF_PERICENTER":219.6172,"MEAN_ANOMALY":140.4382,"EPHEMERIS_TYPE":0,"CLASSIFICATION_TYPE":"U","NORAD_CAT_ID":59136,"ELEMENT_SET_NO":999,"REV_AT_EPOCH":11190,"BSTAR":0.00026222052,"MEAN_MOTION_DOT":7.409e-5,"MEAN_MOTION_DDOT":0}]
